start=new Date('2023-02-08T00:00:00.000Z').valueOf();
sats=[{"BSTAR":"0.00032171000000","MEAN_MOTION":"15.08855935","CLASSIFICATION_TYPE":"U","TIME_SYSTEM":"UTC","APOAPSIS":"540.727","OBJECT_ID":"2022-041M","MEAN_MOTION_DOT":"0.00004838","CENTER_NAME":"EARTH","OBJECT_NAME":"STARLINK-3781","TLE_LINE2":"2 52272  53.2151 124.0513 0001490 111.3360 248.7791 15.08855935 44377","SEMIMAJOR_AXIS":"6917.832","RA_OF_ASC_NODE":"124.0513","SITE":"AFETR","EPHEMERIS_TYPE":"0","LAUNCH_DATE":"2022-04-21","INCLINATION":"53.2151","ARG_OF_PERICENTER":"111.3360","TLE_LINE1":"1 52272U 22041M   23038.66477339  .00004838  00000-0  32171-3 0  9998","COUNTRY_CODE":"US","ELEMENT_SET_NO":"999","NORAD_CAT_ID":"52272","MEAN_MOTION_DDOT":"0.0000000000000","REV_AT_EPOCH":"4437","MEAN_ANOMALY":"248.7791","MEAN_ELEMENT_THEORY":"SGP4","RCS_SIZE":"LARGE","OBJECT_TYPE":"PAYLOAD","GP_ID":"224745331","PERIOD":"95.437","REF_FRAME":"TEME","EPOCH":"2023-02-07T15:57:16.420896","ECCENTRICITY":"0.00014900","PERIAPSIS":"538.666","FILE":"3777976","DECAY_DATE":null},{"NORAD_CAT_ID":"52273","ELEMENT_SET_NO":"999","COUNTRY_CODE":"US","TLE_LINE1":"1 52273U 22041N   23038.52850213  .00001512  00000-0  10833-3 0  9997","ARG_OF_PERICENTER":"78.0690","OBJECT_TYPE":"PAYLOAD","RCS_SIZE":"LARGE","MEAN_ANOMALY":"282.0438","MEAN_ELEMENT_THEORY":"SGP4","REV_AT_EPOCH":"4449","MEAN_MOTION_DDOT":"0.0000000000000","ECCENTRICITY":"0.00012030","EPOCH":"2023-02-07T12:41:02.584032","REF_FRAME":"TEME","GP_ID":"224705426","PERIOD":"95.333","DECAY_DATE":null,"FILE":"3777208","PERIAPSIS":"533.857","MEAN_MOTION_DOT":"0.00001512","OBJECT_ID":"2022-041N","APOAPSIS":"535.520","TIME_SYSTEM":"UTC","CLASSIFICATION_TYPE":"U","MEAN_MOTION":"15.10495888","BSTAR":"0.00010833000000","TLE_LINE2":"2 52273  53.2173 114.5691 0001203  78.0690 282.0438 15.10495888 44492","OBJECT_NAME":"STARLINK-3782","CENTER_NAME":"EARTH","EPHEMERIS_TYPE":"0","SITE":"AFETR","RA_OF_ASC_NODE":"114.5691","SEMIMAJOR_AXIS":"6912.824","INCLINATION":"53.2173","LAUNCH_DATE":"2022-04-21"},{"TLE_LINE2":"2 52274  53.2167 124.9642 0001452 111.0828 249.0319 15.08847877 44345","OBJECT_NAME":"STARLINK-3790","CENTER_NAME":"EARTH","OBJECT_ID":"2022-041P","MEAN_MOTION_DOT":"0.00002185","MEAN_MOTION":"15.08847877","BSTAR":"0.00015530000000","APOAPSIS":"540.726","CLASSIFICATION_TYPE":"U","TIME_SYSTEM":"UTC","INCLINATION":"53.2167","LAUNCH_DATE":"2022-04-21","EPHEMERIS_TYPE":"0","SITE":"AFETR","RA_OF_ASC_NODE":"124.9642","SEMIMAJOR_AXIS":"6917.856","RCS_SIZE":"LARGE","MEAN_ELEMENT_THEORY":"SGP4","MEAN_ANOMALY":"249.0319","OBJECT_TYPE":"PAYLOAD","REV_AT_EPOCH":"4434","MEAN_MOTION_DDOT":"0.0000000000000","NORAD_CAT_ID":"52274","TLE_LINE1":"1 52274U 22041P   23038.46141794  .00002185  00000-0  15530-3 0  9994","ARG_OF_PERICENTER":"111.0828","ELEMENT_SET_NO":"999","COUNTRY_CODE":"US","DECAY_DATE":null,"FILE":"3777208","PERIAPSIS":"538.717","EPOCH":"2023-02-07T11:04:26.510016","ECCENTRICITY":"0.00014520","PERIOD":"95.437","GP_ID":"224705668","REF_FRAME":"TEME"},{"DECAY_DATE":null,"PERIAPSIS":"538.710","FILE":"3777560","EPOCH":"2023-02-07T12:50:25.467072","ECCENTRICITY":"0.00014000","GP_ID":"224713724","PERIOD":"95.436","REF_FRAME":"TEME","MEAN_ANOMALY":"256.5055","MEAN_ELEMENT_THEORY":"SGP4","RCS_SIZE":"LARGE","OBJECT_TYPE":"PAYLOAD","MEAN_MOTION_DDOT":"0.0000000000000","REV_AT_EPOCH":"4556","NORAD_CAT_ID":"52275","ARG_OF_PERICENTER":"103.6093","TLE_LINE1":"1 52275U 22041Q   23038.53501698  .00010484  00000-0  67539-3 0  9993","COUNTRY_CODE":"US","ELEMENT_SET_NO":"999","INCLINATION":"53.2157","LAUNCH_DATE":"2022-04-21","EPHEMERIS_TYPE":"0","SITE":"AFETR","SEMIMAJOR_AXIS":"6917.814","RA_OF_ASC_NODE":"124.6357","TLE_LINE2":"2 52275  53.2157 124.6357 0001400 103.6093 256.5055 15.08861811 45568","CENTER_NAME":"EARTH","OBJECT_NAME":"STARLINK-3784","OBJECT_ID":"2022-041Q","MEAN_MOTION_DOT":"0.00010484","BSTAR":"0.00067539000000","MEAN_MOTION":"15.08861811","TIME_SYSTEM":"UTC","CLASSIFICATION_TYPE":"U","APOAPSIS":"540.647"},{"TLE_LINE2":"2 52276  53.2162 124.3760 0001238 108.1860 251.9267 15.08851320 44366","OBJECT_NAME":"STARLINK-3778","CENTER_NAME":"EARTH","OBJECT_ID":"2022-041R","MEAN_MOTION_DOT":"0.00001642","BSTAR":"0.00012118000000","MEAN_MOTION":"15.08851320","APOAPSIS":"540.567","TIME_SYSTEM":"UTC","CLASSIFICATION_TYPE":"U","INCLINATION":"53.2162","LAUNCH_DATE":"2022-04-21","SITE":"AFETR","EPHEMERIS_TYPE":"0","RA_OF_ASC_NODE":"124.3760","SEMIMAJOR_AXIS":"6917.846","RCS_SIZE":"LARGE","MEAN_ELEMENT_THEORY":"SGP4","MEAN_ANOMALY":"251.9267","OBJECT_TYPE":"PAYLOAD","REV_AT_EPOCH":"4436","MEAN_MOTION_DDOT":"0.0000000000000","NORAD_CAT_ID":"52276","TLE_LINE1":"1 52276U 22041R   23038.59021421  .00001642  00000-0  12118-3 0  9990","ARG_OF_PERICENTER":"108.1860","ELEMENT_SET_NO":"999","COUNTRY_CODE":"US","DECAY_DATE":null,"FILE":"3777976","PERIAPSIS":"538.854","ECCENTRICITY":"0.00012380","EPOCH":"2023-02-07T14:09:54.507744","GP_ID":"224744832","PERIOD":"95.437","REF_FRAME":"TEME"},{"INCLINATION":"53.2170","LAUNCH_DATE":"2022-04-21","SITE":"AFETR","EPHEMERIS_TYPE":"0","SEMIMAJOR_AXIS":"6916.264","RA_OF_ASC_NODE":"123.7507","TLE_LINE2":"2 52277  53.2170 123.7507 0002404  61.6331 298.4903 15.09368834 44389","CENTER_NAME":"EARTH","OBJECT_NAME":"STARLINK-3787","OBJECT_ID":"2022-041S","MEAN_MOTION_DOT":"0.00037711","MEAN_MOTION":"15.09368834","BSTAR":"0.00234080000000","TIME_SYSTEM":"UTC","CLASSIFICATION_TYPE":"U","APOAPSIS":"539.792","DECAY_DATE":null,"PERIAPSIS":"536.467","FILE":"3777976","EPOCH":"2023-02-07T17:29:04.969536","ECCENTRICITY":"0.00024040","GP_ID":"224743592","PERIOD":"95.404","REF_FRAME":"TEME","MEAN_ANOMALY":"298.4903","MEAN_ELEMENT_THEORY":"SGP4","RCS_SIZE":"LARGE","OBJECT_TYPE":"PAYLOAD","MEAN_MOTION_DDOT":"0.0000000000000","REV_AT_EPOCH":"4438","NORAD_CAT_ID":"52277","ARG_OF_PERICENTER":"61.6331","TLE_LINE1":"1 52277U 22041S   23038.72852974  .00037711  00000-0  23408-2 0  9990","COUNTRY_CODE":"US","ELEMENT_SET_NO":"999"},{"RA_OF_ASC_NODE":"122.9194","SEMIMAJOR_AXIS":"6917.870","EPHEMERIS_TYPE":"0","SITE":"AFETR","LAUNCH_DATE":"2022-04-21","INCLINATION":"53.2149","APOAPSIS":"540.575","CLASSIFICATION_TYPE":"U","TIME_SYSTEM":"UTC","BSTAR":"0.00005349400000","MEAN_MOTION":"15.08843429","MEAN_MOTION_DOT":"0.00000564","OBJECT_ID":"2022-041T","OBJECT_NAME":"STARLINK-3780","CENTER_NAME":"EARTH","TLE_LINE2":"2 52278  53.2149 122.9194 0001214 101.8338 258.2791 15.08843429 44411","REF_FRAME":"TEME","GP_ID":"224743842","PERIOD":"95.437","EPOCH":"2023-02-07T22:01:32.888064","ECCENTRICITY":"0.00012140","FILE":"3777976","PERIAPSIS":"538.895","DECAY_DATE":null,"ELEMENT_SET_NO":"999","COUNTRY_CODE":"US","TLE_LINE1":"1 52278U 22041T   23038.91774176  .00000564  00000-0  53494-4 0  9995","ARG_OF_PERICENTER":"101.8338","NORAD_CAT_ID":"52278","REV_AT_EPOCH":"4441","MEAN_MOTION_DDOT":"0.0000000000000","OBJECT_TYPE":"PAYLOAD","RCS_SIZE":"LARGE","MEAN_ANOMALY":"258.2791","MEAN_ELEMENT_THEORY":"SGP4"},{"LAUNCH_DATE":"2022-04-21","INCLINATION":"53.2183","SEMIMAJOR_AXIS":"6905.945","RA_OF_ASC_NODE":"123.3717","SITE":"AFETR","EPHEMERIS_TYPE":"0","CENTER_NAME":"EARTH","OBJECT_NAME":"STARLINK-3686","TLE_LINE2":"2 52279  53.2183 123.3717 0001864  18.7527 341.3535 15.12753216 45592","MEAN_MOTION":"15.12753216","BSTAR":"0.00183520000000","CLASSIFICATION_TYPE":"U","TIME_SYSTEM":"UTC","APOAPSIS":"529.097","OBJECT_ID":"2022-041U","MEAN_MOTION_DOT":"0.00032395","PERIAPSIS":"526.523","FILE":"3777595","DECAY_DATE":null,"GP_ID":"224714122","PERIOD":"95.191","REF_FRAME":"TEME","EPOCH":"2023-02-07T12:57:46.041408","ECCENTRICITY":"0.00018640","MEAN_MOTION_DDOT":"0.0000000000000","REV_AT_EPOCH":"4559","MEAN_ANOMALY":"341.3535","MEAN_ELEMENT_THEORY":"SGP4","RCS_SIZE":"LARGE","OBJECT_TYPE":"PAYLOAD","ARG_OF_PERICENTER":"18.7527","TLE_LINE1":"1 52279U 22041U   23038.54011622  .00032395  00000-0  18352-2 0  9994","COUNTRY_CODE":"US","ELEMENT_SET_NO":"999","NORAD_CAT_ID":"52279"},{"RA_OF_ASC_NODE":"123.8520","SEMIMAJOR_AXIS":"6917.784","SITE":"AFETR","EPHEMERIS_TYPE":"0","LAUNCH_DATE":"2022-04-21","INCLINATION":"53.2148","BSTAR":"0.00050798000000","MEAN_MOTION":"15.08871499","APOAPSIS":"540.446","TIME_SYSTEM":"UTC","CLASSIFICATION_TYPE":"U","OBJECT_ID":"2022-041V","MEAN_MOTION_DOT":"0.00007813","OBJECT_NAME":"STARLINK-3764","CENTER_NAME":"EARTH","TLE_LINE2":"2 52280  53.2148 123.8520 0001152  98.8681 261.2441 15.08871499 44383","GP_ID":"224745332","PERIOD":"95.436","REF_FRAME":"TEME","ECCENTRICITY":"0.00011520","EPOCH":"2023-02-07T16:59:28.618368","FILE":"3777976","PERIAPSIS":"538.852","DECAY_DATE":null,"TLE_LINE1":"1 52280U 22041V   23038.70797012  .00007813  00000-0  50798-3 0  9996","ARG_OF_PERICENTER":"98.8681","ELEMENT_SET_NO":"999","COUNTRY_CODE":"US","NORAD_CAT_ID":"52280","REV_AT_EPOCH":"4438","MEAN_MOTION_DDOT":"0.0000000000000","RCS_SIZE":"LARGE","MEAN_ANOMALY":"261.2441","MEAN_ELEMENT_THEORY":"SGP4","OBJECT_TYPE":"PAYLOAD"},{"TLE_LINE1":"1 52281U 22041W   23038.72363679  .00003739  00000-0  25269-3 0  9995","ARG_OF_PERICENTER":"106.2565","ELEMENT_SET_NO":"999","COUNTRY_CODE":"US","NORAD_CAT_ID":"52281","REV_AT_EPOCH":"4438","MEAN_MOTION_DDOT":"0.0000000000000","RCS_SIZE":"LARGE","MEAN_ANOMALY":"253.8576","MEAN_ELEMENT_THEORY":"SGP4","OBJECT_TYPE":"PAYLOAD","GP_ID":"224744093","PERIOD":"95.436","REF_FRAME":"TEME","EPOCH":"2023-02-07T17:22:02.218656","ECCENTRICITY":"0.00013560","FILE":"3777976","PERIAPSIS":"538.731","DECAY_DATE":null,"BSTAR":"0.00025269000000","MEAN_MOTION":"15.08865069","APOAPSIS":"540.607","CLASSIFICATION_TYPE":"U","TIME_SYSTEM":"UTC","OBJECT_ID":"2022-041W","MEAN_MOTION_DOT":"0.00003739","OBJECT_NAME":"STARLINK-3779","CENTER_NAME":"EARTH","TLE_LINE2":"2 52281  53.2149 123.7809 0001356 106.2565 253.8576 15.08865069 44387","RA_OF_ASC_NODE":"123.7809","SEMIMAJOR_AXIS":"6917.804","SITE":"AFETR","EPHEMERIS_TYPE":"0","LAUNCH_DATE":"2022-04-21","INCLINATION":"53.2149"}];
